[{"OBJECT_NAME":"STARLINK-30958","OBJECT_ID":"2023-183W","EPOCH":"2026-03-09T22:00:12.821184","MEAN_MOTION":15.26795623,"ECCENTRICITY":0.00015804,"INCLINATION":42.9986,"RA_OF_ASC_NODE":39.9433,"ARG_OF_PERICENTER":279.4856,"MEAN_ANOMALY":80.5817,"EPHEMERIS_TYPE":0,"CLASSIFICATION_TYPE":"U","NORAD_CAT_ID":58457,"ELEMENT_SET_NO":999,"REV_AT_EPOCH":12677,"BSTAR":0.0011696043,"MEAN_MOTION_DOT":0.000313,"MEAN_MOTION_DDOT":0},{"OBJECT_NAME":"NUSAT-48 (HENRIETTA LEAVITT)","OBJECT_ID":"2024-149AG","EPOCH":"2026-03-09T19:19:17.269536","MEAN_MOTION":15.29812597,"ECCENTRICITY":0.00027538,"INCLINATION":97.3923,"RA_OF_ASC_NODE":150.8264,"ARG_OF_PERICENTER":263.3026,"MEAN_ANOMALY":96.7901,"EPHEMERIS_TYPE":0,"CLASSIFICATION_TYPE":"U","NORAD_CAT_ID":60498,"ELEMENT_SET_NO":999,"REV_AT_EPOCH":8694,"BSTAR":0.00045211745,"MEAN_MOTION_DOT":0.00012988,"MEAN_MOTION_DDOT":0}]
